{
  "type": "FeatureCollection",
  "features": [
    {
      "type": "Feature",
      "properties": {
        "norad_id": 38250,
        "name": "BEIDOU-2 M3 (C11)",
        "group": "beidou",
        "lat": 19.926940309079644,
        "lon": -35.16915081293304,
        "alt_km": 21547.160321674965,
        "timestamp": "2025-12-27T22:26:48.868778+00:00",
        "meta_object_name": "BEIDOU-2 M3 (C11)",
        "meta_object_id": "2012-018A",
        "meta_epoch": "2025-12-26T06:54:56.796768",
        "meta_mean_motion": 1.86230094,
        "meta_eccentricity": 0.002406,
        "meta_inclination": 55.9085,
        "meta_ra_of_asc_node": 310.7027,
        "meta_arg_of_pericenter": 275.5278,
        "meta_mean_anomaly": 84.2034,
        "meta_ephemeris_type": 0,
        "meta_classification_type": "U",
        "meta_norad_cat_id": 38250,
        "meta_element_set_no": 999,
        "meta_rev_at_epoch": 9272,
        "meta_bstar": 0,
        "meta_mean_motion_dot": -5.6e-07,
        "meta_mean_motion_ddot": 0,
        "tle_line1": "1 38250U 12018A   25360.28815737 -.00000056  00000+0  00000+0 0  9997",
        "tle_line2": "2 38250  55.9085 310.7027 0024060 275.5278  84.2034  1.86230094 92724"
      },
      "geometry": {
        "type": "Point",
        "coordinates": [
          -35.16915081293304,
          19.926940309079644
        ]
      }
    },
    {
      "type": "Feature",
      "properties": {
        "norad_id": 38251,
        "name": "BEIDOU-2 M4 (C12)",
        "group": "beidou",
        "lat": 50.9202533733409,
        "lon": 6.613222482870722,
        "alt_km": 21558.816512468562,
        "timestamp": "2025-12-27T22:26:48.868789+00:00",
        "meta_object_name": "BEIDOU-2 M4 (C12)",
        "meta_object_id": "2012-018B",
        "meta_epoch": "2025-12-26T05:17:08.086272",
        "meta_mean_motion": 1.86229697,
        "meta_eccentricity": 0.0015168,
        "meta_inclination": 55.8099,
        "meta_ra_of_asc_node": 309.9329,
        "meta_arg_of_pericenter": 279.7877,
        "meta_mean_anomaly": 80.0472,
        "meta_ephemeris_type": 0,
        "meta_classification_type": "U",
        "meta_norad_cat_id": 38251,
        "meta_element_set_no": 999,
        "meta_rev_at_epoch": 9272,
        "meta_bstar": 0,
        "meta_mean_motion_dot": -5.5e-07,
        "meta_mean_motion_ddot": 0,
        "tle_line1": "1 38251U 12018B   25360.22023248 -.00000055  00000+0  00000+0 0  9999",
        "tle_line2": "2 38251  55.8099 309.9329 0015168 279.7877  80.0472  1.86229697 92721"
      },
      "geometry": {
        "type": "Point",
        "coordinates": [
          6.613222482870722,
          50.9202533733409
        ]
      }
    },
    {
      "type": "Feature",
      "properties": {
        "norad_id": 38775,
        "name": "BEIDOU-2 M6 (C14)",
        "group": "beidou",
        "lat": -55.87063894641288,
        "lon": -32.897553771415545,
        "alt_km": 21528.295381901513,
        "timestamp": "2025-12-27T22:26:48.868800+00:00",
        "meta_object_name": "BEIDOU-2 M6 (C14)",
        "meta_object_id": "2012-050B",
        "meta_epoch": "2025-12-24T07:41:05.368128",
        "meta_mean_motion": 1.86230801,
        "meta_eccentricity": 0.00114872,
        "meta_inclination": 56.388,
        "meta_ra_of_asc_node": 68.6832,
        "meta_arg_of_pericenter": 343.1884,
        "meta_mean_anomaly": 16.8281,
        "meta_ephemeris_type": 0,
        "meta_classification_type": "U",
        "meta_norad_cat_id": 38775,
        "meta_element_set_no": 999,
        "meta_rev_at_epoch": 9005,
        "meta_bstar": 0,
        "meta_mean_motion_dot": -2.4e-07,
        "meta_mean_motion_ddot": 0,
        "tle_line1": "1 38775U 12050B   25358.32020102 -.00000024  00000+0  00000+0 0  9996",
        "tle_line2": "2 38775  56.3880  68.6832 0011487 343.1884  16.8281  1.86230801 90056"
      },
      "geometry": {
        "type": "Point",
        "coordinates": [
          -32.897553771415545,
          -55.87063894641288
        ]
      }
    },
    {
      "type": "Feature",
      "properties": {
        "norad_id": 38953,
        "name": "BEIDOU-2 G6 (C02)",
        "group": "beidou",
        "lat": 3.9578765163736422,
        "lon": 157.34694136647389,
        "alt_km": 35813.26431299987,
        "timestamp": "2025-12-27T22:26:48.868812+00:00",
        "meta_object_name": "BEIDOU-2 G6 (C02)",
        "meta_object_id": "2012-059A",
        "meta_epoch": "2025-12-26T23:45:51.765408",
        "meta_mean_motion": 1.00274409,
        "meta_eccentricity": 0.00079487,
        "meta_inclination": 3.9833,
        "meta_ra_of_asc_node": 75.3705,
        "meta_arg_of_pericenter": 293.6669,
        "meta_mean_anomaly": 167.1065,
        "meta_ephemeris_type": 0,
        "meta_classification_type": "U",
        "meta_norad_cat_id": 38953,
        "meta_element_set_no": 999,
        "meta_rev_at_epoch": 4818,
        "meta_bstar": 0,
        "meta_mean_motion_dot": -1.55e-06,
        "meta_mean_motion_ddot": 0,
        "tle_line1": "1 38953U 12059A   25360.99018247 -.00000155  00000+0  00000+0 0  9991",
        "tle_line2": "2 38953   3.9833  75.3705 0007948 293.6669 167.1065  1.00274409 48186"
      },
      "geometry": {
        "type": "Point",
        "coordinates": [
          157.34694136647389,
          3.9578765163736422
        ]
      }
    },
    {
      "type": "Feature",
      "properties": {
        "norad_id": 40549,
        "name": "BEIDOU-3S IGSO-1S (C31)",
        "group": "beidou",
        "lat": -36.26949462458496,
        "lon": 156.23106777119332,
        "alt_km": 35662.74218307231,
        "timestamp": "2025-12-27T22:26:48.868823+00:00",
        "meta_object_name": "BEIDOU-3S IGSO-1S (C31)",
        "meta_object_id": "2015-019A",
        "meta_epoch": "2025-12-26T19:27:32.429664",
        "meta_mean_motion": 1.00290016,
        "meta_eccentricity": 0.00365106,
        "meta_inclination": 49.5251,
        "meta_ra_of_asc_node": 297.5457,
        "meta_arg_of_pericenter": 194.1839,
        "meta_mean_anomaly": 350.566,
        "meta_ephemeris_type": 0,
        "meta_classification_type": "U",
        "meta_norad_cat_id": 40549,
        "meta_element_set_no": 999,
        "meta_rev_at_epoch": 3934,
        "meta_bstar": 0,
        "meta_mean_motion_dot": -1.81e-06,
        "meta_mean_motion_ddot": 0,
        "tle_line1": "1 40549U 15019A   25360.81079201 -.00000181  00000+0  00000+0 0  9991",
        "tle_line2": "2 40549  49.5251 297.5457 0036510 194.1839 350.5660  1.00290016 39342"
      },
      "geometry": {
        "type": "Point",
        "coordinates": [
          156.23106777119332,
          -36.26949462458496
        ]
      }
    },
    {
      "type": "Feature",
      "properties": {
        "norad_id": 40748,
        "name": "BEIDOU-3S M2S (C58)",
        "group": "beidou",
        "lat": -49.30384239378685,
        "lon": -106.47755530269073,
        "alt_km": 21502.865923448746,
        "timestamp": "2025-12-27T22:26:48.868834+00:00",
        "meta_object_name": "BEIDOU-3S M2S (C58)",
        "meta_object_id": "2015-037A",
        "meta_epoch": "2025-12-26T23:05:37.447872",
        "meta_mean_motion": 1.86229536,
        "meta_eccentricity": 0.00118283,
        "meta_inclination": 55.026,
        "meta_ra_of_asc_node": 307.9762,
        "meta_arg_of_pericenter": 271.2374,
        "meta_mean_anomaly": 88.6344,
        "meta_ephemeris_type": 0,
        "meta_classification_type": "U",
        "meta_norad_cat_id": 40748,
        "meta_element_set_no": 999,
        "meta_rev_at_epoch": 7091,
        "meta_bstar": 0,
        "meta_mean_motion_dot": -5.8e-07,
        "meta_mean_motion_ddot": 0,
        "tle_line1": "1 40748U 15037A   25360.96223898 -.00000058  00000+0  00000+0 0  9994",
        "tle_line2": "2 40748  55.0260 307.9762 0011828 271.2374  88.6344  1.86229536 70915"
      },
      "geometry": {
        "type": "Point",
        "coordinates": [
          -106.47755530269073,
          -49.30384239378685
        ]
      }
    },
    {
      "type": "Feature",
      "properties": {
        "norad_id": 40749,
        "name": "BEIDOU-3S M1S (C57)",
        "group": "beidou",
        "lat": 32.180386889388416,
        "lon": 101.80425162203721,
        "alt_km": 21529.347970498642,
        "timestamp": "2025-12-27T22:26:48.868845+00:00",
        "meta_object_name": "BEIDOU-3S M1S (C57)",
        "meta_object_id": "2015-037B",
        "meta_epoch": "2025-12-27T04:34:21.423072",
        "meta_mean_motion": 1.86253811,
        "meta_eccentricity": 0.0003729,
        "meta_inclination": 55.0221,
        "meta_ra_of_asc_node": 307.9572,
        "meta_arg_of_pericenter": 3.3585,
        "meta_mean_anomaly": 356.651,
        "meta_ephemeris_type": 0,
        "meta_classification_type": "U",
        "meta_norad_cat_id": 40749,
        "meta_element_set_no": 999,
        "meta_rev_at_epoch": 7092,
        "meta_bstar": 0,
        "meta_mean_motion_dot": -5.9e-07,
        "meta_mean_motion_ddot": 0,
        "tle_line1": "1 40749U 15037B   25361.19052573 -.00000059  00000+0  00000+0 0  9992",
        "tle_line2": "2 40749  55.0221 307.9572 0003729   3.3585 356.6510  1.86253811 70928"
      },
      "geometry": {
        "type": "Point",
        "coordinates": [
          101.80425162203721,
          32.180386889388416
        ]
      }
    }
  ]
}